*******************************************************************************
 Revised: Sep 12, 1996              Venus                               299 / 2
 
 GEOPHYSICAL DATA (updated 2006-Feb-27):
  Mean radius (km)      =   6051.8(4+-1)  Density (g cm^-3)     =  5.204 
  Mass (10^23 kg )      =     48.685      Flattening, f         =  
  Volume (x10^10 km^3)  =     92.843      Semi-major axis       =  
  Sidereal rot. period  =   -243.0185 d   Rot. Rate (x10^5 s)   = -0.029924 
  Mean solar day        =    116.7490 d   Polar gravity ms^-2   =   
  Mom. of Inertia       =      0.33       Equ. gravity  ms^-2   =  8.870 
  Core radius (km)      =  ~3200          Potential Love # k2   = ~0.25 

  Grav spectral fact u  =      1.5        Topo. spectral fact t =  23       
  Fig. offset (Rcf-Rcm) =      0.19+-01   Offset (lat./long.)   = 11/102 dg/dg 
  GM (km^3 s^-2)        = 324858.63       Equatorial Radius, Re = 6051.893 km 
  GM 1-sigma (km^3 s^-2)=    +-0.04       Mass ratio (sun/Mars) = 408523.61
  
  Atmos. pressure (bar) =    90           Max. angular diam.    =   60.2" 
  Mean Temperature (K)  =  735            Visual mag. V(1,0)    =   -4.40 
  Geometric albedo      =    0.65         Obliquity to orbit    =  177.3 deg 
  Sidereal orb. per.    =    0.61519726 y Orbit vel.  km/s      =   35.0214 
  Sidereal orb. per.    =  224.70079922 d Escape vel. km/s      =   10.361 
  Hill's sphere rad. Rp =  167.1          Planetary Solar Const = 2613.9 (Wm^2) 
*******************************************************************************
 
 
*******************************************************************************
Ephemeris / WWW_USER Sat May  7 04:43:06 2011  Pasadena, USA     / Horizons    
*******************************************************************************
Target body name: Venus (299)                     {source: DE405}
Center body name: Earth (399)                     {source: DE405}
Center-site name: GEOCENTRIC
*******************************************************************************
Start time      : A.D. 2011-Apr-18 00:00:00.0000 UT      
Stop  time      : A.D. 2020-May-18 00:00:00.0000 UT      
Step-size       : 1440 minutes
*******************************************************************************
Target pole/equ : IAU_VENUS                       {East-longitude +}
Target radii    : 6051.8 x 6051.8 x 6051.8 km     {Equator, meridian, pole}    
Center geodetic : 0.00000000,0.00000000,0.0000000 {E-lon(deg),Lat(deg),Alt(km)}
Center cylindric: 0.00000000,0.00000000,0.0000000 {E-lon(deg),Dxy(km),Dz(km)}
Center pole/equ : High-precision EOP model        {East-longitude +}
Center radii    : 6378.1 x 6378.1 x 6356.8 km     {Equator, meridian, pole}    
Target primary  : Sun                             {source: DE405+DE406}
Interfering body: MOON (Req= 1737.400) km         {source: DE405}
Deflecting body : Sun, EARTH                      {source: DE405}
Deflecting GMs  : 1.3271E+11, 3.9860E+05 km^3/s^2                              
Atmos refraction: NO (AIRLESS)
RA format       : HMS
Time format     : CAL 
EOP file        : eop.110506.p110728                                           
EOP coverage    : DATA-BASED 1962-JAN-20 TO 2011-MAY-06. PREDICTS-> 2011-JUL-27
Units conversion: 1 AU= 149597870.691 km, c= 299792.458 km/s, 1 day= 86400.0 s 
Table cut-offs 1: Elevation (-90.0deg=NO ),Airmass (>38.000=NO), Daylight (NO )
Table cut-offs 2: Solar Elongation (  0.0,180.0=NO )                           
*************************************************************************************************
 Date__(UT)__HR:MN     R.A._(ICRF/J2000.0)_DEC R.A.__(a-apparent)__DEC  APmag  S-brt   Illu% Cnst
*************************************************************************************************
$$SOE
 2013-May-01 00:00     03 07 23.85 +17 09 13.4 03 08 08.39 +17 12 08.9  -3.89   0.79  98.899  Ari
 2013-May-02 00:00     03 12 19.63 +17 31 21.0 03 13 04.36 +17 34 12.4  -3.89   0.80  98.831  Ari
 2013-May-03 00:00     03 17 16.54 +17 53 01.5 03 18 01.45 +17 55 48.5  -3.89   0.80  98.759  Ari
 2013-May-04 00:00     03 22 14.57 +18 14 14.1 03 22 59.66 +18 16 56.7  -3.89   0.80  98.686  Ari
 2013-May-05 00:00     03 27 13.74 +18 34 58.1 03 27 59.00 +18 37 36.1  -3.88   0.81  98.610  Tau
 2013-May-06 00:00     03 32 14.03 +18 55 12.8 03 32 59.47 +18 57 46.2  -3.88   0.81  98.532  Tau
 2013-May-07 00:00     03 37 15.45 +19 14 57.4 03 38 01.06 +19 17 26.0  -3.88   0.81  98.452  Tau
 2013-May-08 00:00     03 42 17.99 +19 34 11.3 03 43 03.77 +19 36 35.1  -3.88   0.81  98.369  Tau
 2013-May-09 00:00     03 47 21.64 +19 52 53.8 03 48 07.60 +19 55 12.6  -3.88   0.82  98.284  Tau
 2013-May-10 00:00     03 52 26.39 +20 11 04.2 03 53 12.53 +20 13 17.9  -3.87   0.82  98.196  Tau
 2013-May-11 00:00     03 57 32.24 +20 28 41.7 03 58 18.55 +20 30 50.4  -3.87   0.82  98.107  Tau
 2013-May-12 00:00     04 02 39.15 +20 45 45.9 04 03 25.64 +20 47 49.4  -3.87   0.83  98.015  Tau
 2013-May-13 00:00     04 07 47.13 +21 02 16.0 04 08 33.78 +21 04 14.2  -3.87   0.83  97.920  Tau
 2013-May-14 00:00     04 12 56.13 +21 18 11.3 04 13 42.96 +21 20 04.2  -3.87   0.83  97.823  Tau
 2013-May-15 00:00     04 18 06.15 +21 33 31.4 04 18 53.14 +21 35 18.9  -3.87   0.84  97.724  Tau
 2013-May-16 00:00     04 23 17.16 +21 48 15.5 04 24 04.30 +21 49 57.6  -3.87   0.84  97.622  Tau
 2013-May-17 00:00     04 28 29.12 +22 02 23.1 04 29 16.41 +22 03 59.6  -3.86   0.84  97.518  Tau
 2013-May-18 00:00     04 33 42.00 +22 15 53.7 04 34 29.44 +22 17 24.6  -3.86   0.85  97.411  Tau
 2013-May-19 00:00     04 38 55.78 +22 28 46.6 04 39 43.35 +22 30 11.9  -3.86   0.85  97.302  Tau
 2013-May-20 00:00     04 44 10.42 +22 41 01.5 04 44 58.12 +22 42 20.9  -3.86   0.86  97.191  Tau
 2013-May-21 00:00     04 49 25.88 +22 52 37.6 04 50 13.70 +22 53 51.3  -3.86   0.86  97.077  Tau
 2013-May-22 00:00     04 54 42.12 +23 03 34.7 04 55 30.05 +23 04 42.4  -3.86   0.86  96.960  Tau
 2013-May-23 00:00     04 59 59.10 +23 13 52.2 05 00 47.14 +23 14 54.0  -3.86   0.87  96.842  Tau
 2013-May-24 00:00     05 05 16.77 +23 23 29.7 05 06 04.93 +23 24 25.4  -3.86   0.87  96.720  Tau
 2013-May-25 00:00     05 10 35.10 +23 32 26.8 05 11 23.37 +23 33 16.4  -3.85   0.87  96.597  Tau
 2013-May-26 00:00     05 15 54.05 +23 40 43.0 05 16 42.41 +23 41 26.6  -3.85   0.88  96.471  Tau
 2013-May-27 00:00     05 21 13.55 +23 48 18.1 05 22 02.01 +23 48 55.6  -3.85   0.88  96.342  Tau
 2013-May-28 00:00     05 26 33.56 +23 55 11.7 05 27 22.12 +23 55 43.1  -3.85   0.88  96.211  Tau
 2013-May-29 00:00     05 31 54.04 +24 01 23.5 05 32 42.67 +24 01 48.8  -3.85   0.89  96.077  Tau
 2013-May-30 00:00     05 37 14.93 +24 06 53.3 05 38 03.63 +24 07 12.4  -3.85   0.89  95.942  Tau
 2013-May-31 00:00     05 42 36.18 +24 11 40.7 05 43 24.92 +24 11 53.6  -3.85   0.89  95.803  Tau
 2013-Jun-01 00:00     05 47 57.73 +24 15 45.5 05 48 46.51 +24 15 52.3  -3.85   0.90  95.662  Tau
 2013-Jun-02 00:00     05 53 19.51 +24 19 07.6 05 54 08.33 +24 19 08.2  -3.85   0.90  95.519  Tau
 2013-Jun-03 00:00     05 58 41.48 +24 21 46.9 05 59 30.32 +24 21 41.2  -3.85   0.90  95.374  Tau
 2013-Jun-04 00:00     06 04 03.57 +24 23 43.1 06 04 52.42 +24 23 31.1  -3.85   0.91  95.226  Gem
 2013-Jun-05 00:00     06 09 25.71 +24 24 56.2 06 10 14.57 +24 24 38.0  -3.84   0.91  95.075  Gem
 2013-Jun-06 00:00     06 14 47.85 +24 25 26.2 06 15 36.71 +24 25 01.7  -3.84   0.91  94.922  Gem
 2013-Jun-07 00:00     06 20 09.92 +24 25 13.0 06 20 58.77 +24 24 42.3  -3.84   0.92  94.767  Gem
 2013-Jun-08 00:00     06 25 31.86 +24 24 16.6 06 26 20.70 +24 23 39.6  -3.84   0.92  94.610  Gem
 2013-Jun-09 00:00     06 30 53.60 +24 22 37.1 06 31 42.41 +24 21 53.9  -3.84   0.93  94.449  Gem
 2013-Jun-10 00:00     06 36 15.07 +24 20 14.5 06 37 03.86 +24 19 25.2  -3.84   0.93  94.287  Gem
 2013-Jun-11 00:00     06 41 36.23 +24 17 09.0 06 42 24.98 +24 16 13.6  -3.84   0.93  94.122  Gem
 2013-Jun-12 00:00     06 46 56.99 +24 13 20.7 06 47 45.69 +24 12 19.2  -3.84   0.94  93.955  Gem
 2013-Jun-13 00:00     06 52 17.31 +24 08 49.7 06 53 05.95 +24 07 42.1  -3.84   0.94  93.786  Gem
 2013-Jun-14 00:00     06 57 37.11 +24 03 36.2 06 58 25.69 +24 02 22.7  -3.84   0.94  93.614  Gem
 2013-Jun-15 00:00     07 02 56.35 +23 57 40.6 07 03 44.85 +23 56 21.2  -3.84   0.95  93.439  Gem
 2013-Jun-16 00:00     07 08 14.96 +23 51 03.0 07 09 03.37 +23 49 37.7  -3.84   0.95  93.263  Gem
 2013-Jun-17 00:00     07 13 32.88 +23 43 43.7 07 14 21.20 +23 42 12.5  -3.84   0.95  93.084  Gem
 2013-Jun-18 00:00     07 18 50.07 +23 35 43.1 07 19 38.28 +23 34 06.1  -3.84   0.96  92.902  Gem
 2013-Jun-19 00:00     07 24 06.46 +23 27 01.4 07 24 54.57 +23 25 18.7  -3.84   0.96  92.719  Gem
 2013-Jun-20 00:00     07 29 22.01 +23 17 39.2 07 30 10.01 +23 15 50.7  -3.84   0.97  92.533  Gem
 2013-Jun-21 00:00     07 34 36.67 +23 07 36.6 07 35 24.56 +23 05 42.6  -3.84   0.97  92.344  Gem
 2013-Jun-22 00:00     07 39 50.40 +22 56 54.3 07 40 38.18 +22 54 54.6  -3.84   0.97  92.154  Gem
 2013-Jun-23 00:00     07 45 03.15 +22 45 32.5 07 45 50.81 +22 43 27.4  -3.84   0.98  91.961  Gem
 2013-Jun-24 00:00     07 50 14.89 +22 33 31.8 07 51 02.43 +22 31 21.3  -3.84   0.98  91.766  Gem
 2013-Jun-25 00:00     07 55 25.58 +22 20 52.6 07 56 12.99 +22 18 36.8  -3.84   0.98  91.568  Gem
 2013-Jun-26 00:00     08 00 35.19 +22 07 35.4 08 01 22.47 +22 05 14.4  -3.84   0.99  91.369  Cnc
 2013-Jun-27 00:00     08 05 43.69 +21 53 40.7 08 06 30.82 +21 51 14.7  -3.84   0.99  91.167  Cnc
 2013-Jun-28 00:00     08 10 51.04 +21 39 09.1 08 11 38.02 +21 36 38.1  -3.84   1.00  90.963  Cnc
 2013-Jun-29 00:00     08 15 57.23 +21 24 01.1 08 16 44.05 +21 21 25.3  -3.85   1.00  90.757  Cnc
 2013-Jun-30 00:00     08 21 02.22 +21 08 17.4 08 21 48.89 +21 05 36.7  -3.85   1.00  90.548  Cnc
 2013-Jul-01 00:00     08 26 06.00 +20 51 58.4 08 26 52.51 +20 49 13.0  -3.85   1.01  90.338  Cnc
